[{"OBJECT_NAME":"STARLINK-31137","OBJECT_ID":"2023-211V","EPOCH":"2026-03-09T02:28:04.097280","MEAN_MOTION":15.27567968,"ECCENTRICITY":7.632e-5,"INCLINATION":43.0029,"RA_OF_ASC_NODE":88.6918,"ARG_OF_PERICENTER":265.5034,"MEAN_ANOMALY":94.573,"EPHEMERIS_TYPE":0,"CLASSIFICATION_TYPE":"U","NORAD_CAT_ID":58686,"ELEMENT_SET_NO":999,"REV_AT_EPOCH":12237,"BSTAR":-3.1195087e-5,"MEAN_MOTION_DOT":-1.12e-5,"MEAN_MOTION_DDOT":0},{"OBJECT_NAME":"DMSP 5D-2 F14 DEB","OBJECT_ID":"1997-012E","EPOCH":"2026-03-09T23:05:42.500544","MEAN_MOTION":15.25086034,"ECCENTRICITY":0.00083151,"INCLINATION":98.7933,"RA_OF_ASC_NODE":208.6058,"ARG_OF_PERICENTER":272.9178,"MEAN_ANOMALY":87.1104,"EPHEMERIS_TYPE":0,"CLASSIFICATION_TYPE":"U","NORAD_CAT_ID":24778,"ELEMENT_SET_NO":999,"REV_AT_EPOCH":51788,"BSTAR":0.0054670036,"MEAN_MOTION_DOT":0.00139299,"MEAN_MOTION_DDOT":0}]
